#aV2022  8 14  0  0  0.00000000     288 DD+AD WGS84 FIT  NGA
## 2223      0.00000000   300.00000000 59805 0.0000000000000
+   32     1  2  3  4  5  6  7  8  9 10 11 12 13 14 15 16 17
+         18 19 20 21 22 23 24 25 26 27 28 29 30 31 32  0  0
+          0  0  0  0  0  0  0  0  0  0  0  0  0  0  0  0  0
+          0  0  0  0  0  0  0  0  0  0  0  0  0  0  0  0  0
+          0  0  0  0  0  0  0  0  0  0  0  0  0  0  0  0  0
++         2  2  2  2  2  2  2  2  2  2  2  2  2  2  2  2  2
++         2  2  2  2  2  2  2  2  2  2  2  2  2  2  2  0  0
++         0  0  0  0  0  0  0  0  0  0  0  0  0  0  0  0  0
++         0  0  0  0  0  0  0  0  0  0  0  0  0  0  0  0  0
++         0  0  0  0  0  0  0  0  0  0  0  0  0  0  0  0  0
%c cc cc ccc ccc cccc cccc cccc cccc ccccc ccccc ccccc ccccc
%c cc cc ccc ccc cccc cccc cccc cccc ccccc ccccc ccccc ccccc
%f  0.0000000  0.000000000  0.00000000000  0.000000000000000
%f  0.0000000  0.000000000  0.00000000000  0.000000000000000
%i    0    0    0    0      0      0      0      0         0
%i    0    0    0    0      0      0      0      0         0
/*      NGA, ST. LOUIS,MO.                                  
/*   EPHEMERIS COMPUTED FROM 2 DAYS OF DATA                 
/*   EPOCHA v8 SMOOTHER                                     
/*   G2139 IERS2010 SATIGS SATAPC                           
*  2022  8 14 15 40  0.00000000
P  1  16260.411870  13486.742649 -16616.988150    302.184791                    
V  1 -20249.680543  -1997.596290 -21516.704924     -0.070057                    
P  2   -177.705648 -15420.078723  22273.157626   -649.113373                    
V  2  26696.383607   1297.863805   1306.917508      0.010165                    
P  3  12387.750319  23215.438409   3898.446283   -331.598263                    
V  3   -161.314739   5558.532705 -31482.985091     -0.081781                    
P  4   6299.512664  15178.109286  20853.267493   -133.079325                    
V  4 -17545.300344  19853.516023  -9243.573814      0.050759                    
P  5  -4800.307890 -24564.254962   8506.881472    -92.867600                    
V  5   7108.039247   8926.897025  29319.006112     -0.013986                    
P  6  20525.449263  -7317.052785  15299.710893    424.858086                    
V  6  18860.414266   4016.902599 -23401.116523      0.141826                    
P  7  25883.982064   6253.480091   3685.724180    314.567417                    
V  7  -4438.515711   2054.398502  30754.260600     -0.021745                    
P  8   -618.238010  20481.964268 -16739.233299    -80.447511                    
V  8 -14223.563150  16000.043817  20495.689813     -0.015984                    
P  9  15435.961644   4259.909766  21124.872112   -308.232421                    
V  9 -15552.553266  22083.732732   6850.704887      0.042843                    
P 10 -14802.283841   2819.846239 -21746.077092   -527.848136                    
V 10 -10529.026522 -25836.629890   3497.023559     -0.134418                    
P 11   9173.387156 -13209.108129  21128.251146    -11.253074                    
V 11  26238.059988   5673.289484  -7873.748137     -0.010931                    
P 12  -9625.011627 -24710.029847   2032.734045   -262.224638                    
V 12   1474.841377  -3532.859158 -31709.344266     -0.059549                    
P 13  10559.692748 -21469.788850 -11494.656783    367.804496                    
V 13  11847.359541  -8492.968051  27304.882468      0.071904                    
P 14  15831.406605   -973.914699 -21310.044906   -109.231250                    
V 14   8907.091709  25591.798663   5340.513456      0.015416                    
P 15  -2320.326837 -20726.006418 -16700.716538    -37.317315                    
V 15  12463.352333 -16608.183499  19686.096149      0.030701                    
P 16  -2458.980241  22577.384977  13110.991435   -520.438204                    
V 16  -7461.266342 -15762.911387  25664.807884     -0.016454                    
P 17  20560.567643 -10256.180084 -12935.525371    648.335026                    
V 17  -9816.402918  14118.610858 -25878.650706      0.041738                    
P 18 -25886.948919  -5722.521093   2516.599502     81.962312                    
V 18   3510.499128  -1826.714319  31705.008122     -0.120928                    
P 19  20299.008620 -16217.013991  -5093.789645    197.122376                    
V 19  -2540.325172   6134.241206 -31398.070969      0.050385                    
P 20   4116.112423 -18795.331650  18408.435198    494.841187                    
V 20  13566.646828  19059.689670  16202.223764     -0.031371                    
P 21   7897.046396  14602.288615 -20269.044533    160.489454                    
V 21 -26987.542540   -706.950595 -10001.139525     -0.003140                    
P 22 -18672.159712  18626.268142  -1758.999673    309.774187                    
V 22   -320.718991  -4017.357090 -31798.560853      0.066266                    
P 23 -17422.758976  -8243.591929 -18338.766839    -36.859517                    
V 23  -8207.494985 -21733.469386  17460.797495     -0.012699                    
P 24 -12805.342104 -14500.609880 -18679.428815    168.468939                    
V 24  23080.363376   -320.943260 -15420.507339     -0.114737                    
P 25 -16564.676348 -16492.734330  12573.779267    360.771911                    
V 25  -4185.963837 -15961.312859 -25593.423688      0.042677                    
P 26  -8258.737300  15866.483482  19451.863430    223.652111                    
V 26 -12342.889922 -21882.318520  12865.575434      0.019245                    
P 27 -11376.145019  22751.926594  -7108.179077    219.284280                    
V 27  -7460.303582   5397.732817  30509.089882     -0.016924                    
P 28  11589.185992 -11015.061343 -20743.978847    340.381720                    
V 28   8680.243635  26055.099037  -8545.615712      0.007412                    
P 29 -14541.458297  -5404.908867  21522.114408   -542.756598                    
V 29  17979.780345 -20641.393764   6870.382708     -0.033695                    
P 30  25644.327107  -1502.185270  -7161.079198   -535.860581                    
V 30   8606.865262   4536.653491  29234.864808     -0.005563                    
P 31 -19128.413584   8710.637104  16369.527966   -189.622660                    
V 31 -20350.267578  -4974.280627 -20506.404653     -0.014010                    
P 32 -19920.484328  13189.802358 -11247.147555   -203.756140                    
V 32   6709.740867 -13212.221234 -27210.155640     -0.106304                    
EOF
